start=new Date('2022-12-10T00:00:00.000Z').valueOf();
sats=[{"PERIOD":"95.439","TIME_SYSTEM":"UTC","EPHEMERIS_TYPE":"0","CLASSIFICATION_TYPE":"U","ECCENTRICITY":"0.00019260","SEMIMAJOR_AXIS":"6917.945","GP_ID":"219857504","SITE":"AFETR","LAUNCH_DATE":"2022-07-24","BSTAR":"-0.00004488300000","TLE_LINE2":"2 53242  53.2183 123.3618 0001926  36.2964 323.8158 15.08818931 21762","RCS_SIZE":"LARGE","FILE":"3685818","TLE_LINE1":"1 53242U 22086A   22343.67611478 -.00001002  00000-0 -44883-4 0  9994","APOAPSIS":"541.142","EPOCH":"2022-12-09T16:13:36.316992","MEAN_ANOMALY":"323.8158","OBJECT_NAME":"STARLINK-4056","NORAD_CAT_ID":"53242","OBJECT_TYPE":"PAYLOAD","MEAN_MOTION_DDOT":"0.0000000000000","RA_OF_ASC_NODE":"123.3618","MEAN_MOTION":"15.08818931","ELEMENT_SET_NO":"999","MEAN_ELEMENT_THEORY":"SGP4","CENTER_NAME":"EARTH","COUNTRY_CODE":"US","ARG_OF_PERICENTER":"36.2964","DECAY_DATE":null,"MEAN_MOTION_DOT":"-0.00001002","OBJECT_ID":"2022-086A","REV_AT_EPOCH":"2176","PERIAPSIS":"538.477","REF_FRAME":"TEME","INCLINATION":"53.2183"},{"MEAN_ANOMALY":"307.2217","EPOCH":"2022-12-09T09:52:40.371168","TLE_LINE1":"1 53243U 22086B   22343.41157837 -.00000190  00000-0  61795-5 0  9999","APOAPSIS":"541.356","FILE":"3685263","RCS_SIZE":"LARGE","BSTAR":"0.00000617950000","TLE_LINE2":"2 53243  53.2171 129.5180 0002335  52.8988 307.2217 15.08841536 22172","LAUNCH_DATE":"2022-07-24","SITE":"AFETR","GP_ID":"219844527","SEMIMAJOR_AXIS":"6917.876","CLASSIFICATION_TYPE":"U","ECCENTRICITY":"0.00023350","EPHEMERIS_TYPE":"0","TIME_SYSTEM":"UTC","PERIOD":"95.437","INCLINATION":"53.2171","REF_FRAME":"TEME","PERIAPSIS":"538.125","REV_AT_EPOCH":"2217","OBJECT_ID":"2022-086B","MEAN_MOTION_DOT":"-0.00000190","DECAY_DATE":null,"ARG_OF_PERICENTER":"52.8988","CENTER_NAME":"EARTH","COUNTRY_CODE":"US","MEAN_ELEMENT_THEORY":"SGP4","MEAN_MOTION":"15.08841536","ELEMENT_SET_NO":"999","MEAN_MOTION_DDOT":"0.0000000000000","RA_OF_ASC_NODE":"129.5180","OBJECT_TYPE":"PAYLOAD","NORAD_CAT_ID":"53243","OBJECT_NAME":"STARLINK-4047"},{"SITE":"AFETR","GP_ID":"219844938","SEMIMAJOR_AXIS":"6917.905","TIME_SYSTEM":"UTC","CLASSIFICATION_TYPE":"U","ECCENTRICITY":"0.00027190","EPHEMERIS_TYPE":"0","PERIOD":"95.438","MEAN_ANOMALY":"306.8043","FILE":"3685263","RCS_SIZE":"LARGE","EPOCH":"2022-12-09T03:15:13.890816","TLE_LINE1":"1 53244U 22086C   22343.13557744  .00000209  00000-0  31262-4 0  9995","APOAPSIS":"541.651","LAUNCH_DATE":"2022-07-24","TLE_LINE2":"2 53244  53.2158 130.7662 0002719  53.3198 306.8043 15.08832007 22111","BSTAR":"0.00003126200000","DECAY_DATE":null,"ARG_OF_PERICENTER":"53.3198","MEAN_MOTION_DOT":"0.00000209","ELEMENT_SET_NO":"999","MEAN_MOTION":"15.08832007","CENTER_NAME":"EARTH","COUNTRY_CODE":"US","MEAN_ELEMENT_THEORY":"SGP4","MEAN_MOTION_DDOT":"0.0000000000000","RA_OF_ASC_NODE":"130.7662","NORAD_CAT_ID":"53244","OBJECT_TYPE":"PAYLOAD","OBJECT_NAME":"STARLINK-4125","INCLINATION":"53.2158","REF_FRAME":"TEME","REV_AT_EPOCH":"2211","PERIAPSIS":"537.889","OBJECT_ID":"2022-086C"},{"REF_FRAME":"TEME","INCLINATION":"53.2183","OBJECT_ID":"2022-086D","PERIAPSIS":"538.415","REV_AT_EPOCH":"2217","MEAN_ELEMENT_THEORY":"SGP4","CENTER_NAME":"EARTH","COUNTRY_CODE":"US","ELEMENT_SET_NO":"999","MEAN_MOTION":"15.08833751","MEAN_MOTION_DOT":"0.00000279","ARG_OF_PERICENTER":"58.3868","DECAY_DATE":null,"OBJECT_NAME":"STARLINK-4124","OBJECT_TYPE":"PAYLOAD","NORAD_CAT_ID":"53245","MEAN_MOTION_DDOT":"0.0000000000000","RA_OF_ASC_NODE":"129.5371","MEAN_ANOMALY":"301.7314","BSTAR":"0.00003565900000","TLE_LINE2":"2 53245  53.2183 129.5371 0001950  58.3868 301.7314 15.08833751 22176","LAUNCH_DATE":"2022-07-24","APOAPSIS":"541.113","TLE_LINE1":"1 53245U 22086D   22343.40789086  .00000279  00000-0  35659-4 0  9993","EPOCH":"2022-12-09T09:47:21.770304","RCS_SIZE":"LARGE","FILE":"3685263","SEMIMAJOR_AXIS":"6917.899","GP_ID":"219844733","SITE":"AFETR","PERIOD":"95.438","EPHEMERIS_TYPE":"0","CLASSIFICATION_TYPE":"U","ECCENTRICITY":"0.00019500","TIME_SYSTEM":"UTC"},{"REF_FRAME":"TEME","INCLINATION":"53.2161","OBJECT_ID":"2022-086E","REV_AT_EPOCH":"2104","PERIAPSIS":"537.700","ELEMENT_SET_NO":"999","MEAN_MOTION":"15.08841662","MEAN_ELEMENT_THEORY":"SGP4","CENTER_NAME":"EARTH","COUNTRY_CODE":"US","ARG_OF_PERICENTER":"54.8463","DECAY_DATE":null,"MEAN_MOTION_DOT":"0.00001252","OBJECT_NAME":"STARLINK-4131","OBJECT_TYPE":"PAYLOAD","NORAD_CAT_ID":"53246","RA_OF_ASC_NODE":"129.5595","MEAN_MOTION_DDOT":"0.0000000000000","MEAN_ANOMALY":"305.2805","LAUNCH_DATE":"2022-07-24","BSTAR":"0.00009676500000","TLE_LINE2":"2 53246  53.2161 129.5595 0002950  54.8463 305.2805 15.08841662 21043","RCS_SIZE":"LARGE","FILE":"3685263","TLE_LINE1":"1 53246U 22086E   22343.40420790  .00001252  00000-0  96765-4 0  9995","APOAPSIS":"541.781","EPOCH":"2022-12-09T09:42:03.562560","GP_ID":"219844322","SEMIMAJOR_AXIS":"6917.875","SITE":"AFETR","PERIOD":"95.437","TIME_SYSTEM":"UTC","EPHEMERIS_TYPE":"0","ECCENTRICITY":"0.00029500","CLASSIFICATION_TYPE":"U"},{"REV_AT_EPOCH":"2174","PERIAPSIS":"538.539","OBJECT_ID":"2022-086F","REF_FRAME":"TEME","INCLINATION":"53.2189","NORAD_CAT_ID":"53247","OBJECT_TYPE":"PAYLOAD","RA_OF_ASC_NODE":"123.9684","MEAN_MOTION_DDOT":"0.0000000000000","OBJECT_NAME":"STARLINK-4061","ARG_OF_PERICENTER":"32.5412","DECAY_DATE":null,"MEAN_MOTION_DOT":"-0.00001233","MEAN_MOTION":"15.08826403","ELEMENT_SET_NO":"999","MEAN_ELEMENT_THEORY":"SGP4","CENTER_NAME":"EARTH","COUNTRY_CODE":"US","RCS_SIZE":"LARGE","FILE":"3685263","APOAPSIS":"541.035","TLE_LINE1":"1 53247U 22086F   22343.53995075 -.00001233  00000-0 -59409-4 0  9998","EPOCH":"2022-12-09T12:57:31.744800","LAUNCH_DATE":"2022-07-24","TLE_LINE2":"2 53247  53.2189 123.9684 0001804  32.5412 327.5691 15.08826403 21748","BSTAR":"-0.00005940900000","MEAN_ANOMALY":"327.5691","TIME_SYSTEM":"UTC","EPHEMERIS_TYPE":"0","CLASSIFICATION_TYPE":"U","ECCENTRICITY":"0.00018040","PERIOD":"95.438","SITE":"AFETR","SEMIMAJOR_AXIS":"6917.922","GP_ID":"219844107"},{"SITE":"AFETR","SEMIMAJOR_AXIS":"6917.851","GP_ID":"219857249","ECCENTRICITY":"0.00014350","CLASSIFICATION_TYPE":"U","EPHEMERIS_TYPE":"0","TIME_SYSTEM":"UTC","PERIOD":"95.437","MEAN_ANOMALY":"77.5828","APOAPSIS":"540.709","TLE_LINE1":"1 53248U 22086G   22343.80120787 -.00004647  00000-0 -27399-3 0  9993","EPOCH":"2022-12-09T19:13:44.359968","FILE":"3685819","RCS_SIZE":"LARGE","TLE_LINE2":"2 53248  53.2164 122.7933 0001435 282.5003  77.5828 15.08849620 21783","BSTAR":"-0.00027399000000","LAUNCH_DATE":"2022-07-24","MEAN_MOTION_DOT":"-0.00004647","DECAY_DATE":null,"ARG_OF_PERICENTER":"282.5003","CENTER_NAME":"EARTH","COUNTRY_CODE":"US","MEAN_ELEMENT_THEORY":"SGP4","MEAN_MOTION":"15.08849620","ELEMENT_SET_NO":"999","MEAN_MOTION_DDOT":"0.0000000000000","RA_OF_ASC_NODE":"122.7933","NORAD_CAT_ID":"53248","OBJECT_TYPE":"PAYLOAD","OBJECT_NAME":"STARLINK-4135","INCLINATION":"53.2164","REF_FRAME":"TEME","PERIAPSIS":"538.723","REV_AT_EPOCH":"2178","OBJECT_ID":"2022-086G"},{"SITE":"AFETR","SEMIMAJOR_AXIS":"6917.934","GP_ID":"219845134","EPHEMERIS_TYPE":"0","ECCENTRICITY":"0.00023120","CLASSIFICATION_TYPE":"U","TIME_SYSTEM":"UTC","PERIOD":"95.439","MEAN_ANOMALY":"317.3058","APOAPSIS":"541.398","TLE_LINE1":"1 53249U 22086H   22343.48241163 -.00003138  00000-0 -17921-3 0  9994","EPOCH":"2022-12-09T11:34:40.364832","RCS_SIZE":"LARGE","FILE":"3685263","BSTAR":"-0.00017921000000","TLE_LINE2":"2 53249  53.2187 119.2303 0002312  42.8114 317.3058 15.08822500 21807","LAUNCH_DATE":"2022-07-24","MEAN_MOTION_DOT":"-0.00003138","DECAY_DATE":null,"ARG_OF_PERICENTER":"42.8114","MEAN_ELEMENT_THEORY":"SGP4","COUNTRY_CODE":"US","CENTER_NAME":"EARTH","MEAN_MOTION":"15.08822500","ELEMENT_SET_NO":"999","OBJECT_TYPE":"PAYLOAD","NORAD_CAT_ID":"53249","RA_OF_ASC_NODE":"119.2303","MEAN_MOTION_DDOT":"0.0000000000000","OBJECT_NAME":"STARLINK-4128","REF_FRAME":"TEME","INCLINATION":"53.2187","PERIAPSIS":"538.199","REV_AT_EPOCH":"2180","OBJECT_ID":"2022-086H"},{"SEMIMAJOR_AXIS":"6917.935","GP_ID":"219843902","SITE":"AFETR","PERIOD":"95.439","TIME_SYSTEM":"UTC","EPHEMERIS_TYPE":"0","ECCENTRICITY":"0.00021100","CLASSIFICATION_TYPE":"U","MEAN_ANOMALY":"341.5644","LAUNCH_DATE":"2022-07-24","BSTAR":"0.00045704000000","TLE_LINE2":"2 53250  53.2186 119.8084 0002110  18.5425 341.5644 15.08822128 21986","RCS_SIZE":"LARGE","FILE":"3685263","EPOCH":"2022-12-09T08:29:12.172704","TLE_LINE1":"1 53250U 22086J   22343.35361311  .00006990  00000-0  45704-3 0  9997","APOAPSIS":"541.260","MEAN_MOTION":"15.08822128","ELEMENT_SET_NO":"999","MEAN_ELEMENT_THEORY":"SGP4","COUNTRY_CODE":"US","CENTER_NAME":"EARTH","ARG_OF_PERICENTER":"18.5425","DECAY_DATE":null,"MEAN_MOTION_DOT":"0.00006990","OBJECT_NAME":"STARLINK-4059","OBJECT_TYPE":"PAYLOAD","NORAD_CAT_ID":"53250","MEAN_MOTION_DDOT":"0.0000000000000","RA_OF_ASC_NODE":"119.8084","REF_FRAME":"TEME","INCLINATION":"53.2186","OBJECT_ID":"2022-086J","REV_AT_EPOCH":"2198","PERIAPSIS":"538.340"},{"REF_FRAME":"TEME","INCLINATION":"53.2173","REV_AT_EPOCH":"2186","PERIAPSIS":"538.172","OBJECT_ID":"2022-086K","DECAY_DATE":null,"ARG_OF_PERICENTER":"43.8727","MEAN_MOTION_DOT":"0.00001515","ELEMENT_SET_NO":"999","MEAN_MOTION":"15.08845422","MEAN_ELEMENT_THEORY":"SGP4","CENTER_NAME":"EARTH","COUNTRY_CODE":"US","NORAD_CAT_ID":"53251","OBJECT_TYPE":"PAYLOAD","MEAN_MOTION_DDOT":"0.0000000000000","RA_OF_ASC_NODE":"122.8209","OBJECT_NAME":"STARLINK-4129","MEAN_ANOMALY":"316.2443","RCS_SIZE":"LARGE","FILE":"3684925","TLE_LINE1":"1 53251U 22086K   22342.68015889  .00001515  00000-0  11323-3 0  9997","APOAPSIS":"541.286","EPOCH":"2022-12-08T16:19:25.728096","LAUNCH_DATE":"2022-07-24","BSTAR":"0.00011323000000","TLE_LINE2":"2 53251  53.2173 122.8209 0002251  43.8727 316.2443 15.08845422 21863","SITE":"AFETR","GP_ID":"219810971","SEMIMAJOR_AXIS":"6917.864","TIME_SYSTEM":"UTC","EPHEMERIS_TYPE":"0","ECCENTRICITY":"0.00022510","CLASSIFICATION_TYPE":"U","PERIOD":"95.437"}];
